{
  "type": "FeatureCollection",
  "features": [
    {
      "type": "Feature",
      "properties": {
        "norad_id": 40730,
        "name": "GPS BIIF-10 (PRN 08)",
        "group": "gps-ops",
        "lat": 28.765872700296352,
        "lon": 71.33716628372704,
        "alt_km": 20308.64976588959,
        "timestamp": "2025-12-13T22:39:29.968674+00:00",
        "meta_object_name": "GPS BIIF-10 (PRN 08)",
        "meta_object_id": "2015-033A",
        "meta_epoch": "2025-12-12T18:00:46.336320",
        "meta_mean_motion": 2.00565613,
        "meta_eccentricity": 0.01109707,
        "meta_inclination": 54.1306,
        "meta_ra_of_asc_node": 274.7724,
        "meta_arg_of_pericenter": 26.8075,
        "meta_mean_anomaly": 333.7759,
        "meta_ephemeris_type": 0,
        "meta_classification_type": "U",
        "meta_norad_cat_id": 40730,
        "meta_element_set_no": 999,
        "meta_rev_at_epoch": 7625,
        "meta_bstar": 0,
        "meta_mean_motion_dot": -7.4e-07,
        "meta_mean_motion_ddot": 0,
        "tle_line1": "1 40730U 15033A   25346.75053630 -.00000074  00000+0  00000+0 0  9995",
        "tle_line2": "2 40730  54.1306 274.7724 0110970  26.8075 333.7759  2.00565613 76259"
      },
      "geometry": {
        "type": "Point",
        "coordinates": [
          71.33716628372704,
          28.765872700296352
        ]
      }
    },
    {
      "type": "Feature",
      "properties": {
        "norad_id": 41019,
        "name": "GPS BIIF-11 (PRN 10)",
        "group": "gps-ops",
        "lat": 56.180709806794816,
        "lon": 140.71994552200604,
        "alt_km": 20374.472227989438,
        "timestamp": "2025-12-13T22:39:29.968686+00:00",
        "meta_object_name": "GPS BIIF-11 (PRN 10)",
        "meta_object_id": "2015-062A",
        "meta_epoch": "2025-12-12T19:26:17.021472",
        "meta_mean_motion": 2.00567154,
        "meta_eccentricity": 0.01108376,
        "meta_inclination": 56.8322,
        "meta_ra_of_asc_node": 37.9995,
        "meta_arg_of_pericenter": 229.9471,
        "meta_mean_anomaly": 129.1248,
        "meta_ephemeris_type": 0,
        "meta_classification_type": "U",
        "meta_norad_cat_id": 41019,
        "meta_element_set_no": 999,
        "meta_rev_at_epoch": 7409,
        "meta_bstar": 0,
        "meta_mean_motion_dot": -9.6e-07,
        "meta_mean_motion_ddot": 0,
        "tle_line1": "1 41019U 15062A   25346.80991923 -.00000096  00000+0  00000+0 0  9994",
        "tle_line2": "2 41019  56.8322  37.9995 0110837 229.9471 129.1248  2.00567154 74096"
      },
      "geometry": {
        "type": "Point",
        "coordinates": [
          140.71994552200604,
          56.180709806794816
        ]
      }
    },
    {
      "type": "Feature",
      "properties": {
        "norad_id": 41328,
        "name": "GPS BIIF-12 (PRN 32)",
        "group": "gps-ops",
        "lat": 31.0898133644037,
        "lon": 121.3655458020273,
        "alt_km": 20400.364483564037,
        "timestamp": "2025-12-13T22:39:29.968697+00:00",
        "meta_object_name": "GPS BIIF-12 (PRN 32)",
        "meta_object_id": "2016-007A",
        "meta_epoch": "2025-12-10T21:33:15.579936",
        "meta_mean_motion": 2.00560768,
        "meta_eccentricity": 0.0092092,
        "meta_inclination": 55.4051,
        "meta_ra_of_asc_node": 96.9301,
        "meta_arg_of_pericenter": 243.5329,
        "meta_mean_anomaly": 115.5097,
        "meta_ephemeris_type": 0,
        "meta_classification_type": "U",
        "meta_norad_cat_id": 41328,
        "meta_element_set_no": 999,
        "meta_rev_at_epoch": 7206,
        "meta_bstar": 0,
        "meta_mean_motion_dot": 1e-08,
        "meta_mean_motion_ddot": 0,
        "tle_line1": "1 41328U 16007A   25344.89809699  .00000001  00000+0  00000+0 0  9997",
        "tle_line2": "2 41328  55.4051  96.9301 0092092 243.5329 115.5097  2.00560768 72065"
      },
      "geometry": {
        "type": "Point",
        "coordinates": [
          121.3655458020273,
          31.0898133644037
        ]
      }
    },
    {
      "type": "Feature",
      "properties": {
        "norad_id": 43873,
        "name": "GPS BIII-1  (PRN 04)",
        "group": "gps-ops",
        "lat": -49.186987919788535,
        "lon": 46.97121310531556,
        "alt_km": 20202.948073050396,
        "timestamp": "2025-12-13T22:39:29.968708+00:00",
        "meta_object_name": "GPS BIII-1  (PRN 04)",
        "meta_object_id": "2018-109A",
        "meta_epoch": "2025-12-12T07:06:10.304640",
        "meta_mean_motion": 2.00553613,
        "meta_eccentricity": 0.0037314,
        "meta_inclination": 55.5671,
        "meta_ra_of_asc_node": 99.5642,
        "meta_arg_of_pericenter": 194.9554,
        "meta_mean_anomaly": 348.038,
        "meta_ephemeris_type": 0,
        "meta_classification_type": "U",
        "meta_norad_cat_id": 43873,
        "meta_element_set_no": 999,
        "meta_rev_at_epoch": 5132,
        "meta_bstar": 0,
        "meta_mean_motion_dot": -2e-08,
        "meta_mean_motion_ddot": 0,
        "tle_line1": "1 43873U 18109A   25346.29595260 -.00000002  00000+0  00000+0 0  9993",
        "tle_line2": "2 43873  55.5671  99.5642 0037314 194.9554 348.0380  2.00553613 51328"
      },
      "geometry": {
        "type": "Point",
        "coordinates": [
          46.97121310531556,
          -49.186987919788535
        ]
      }
    },
    {
      "type": "Feature",
      "properties": {
        "norad_id": 44506,
        "name": "GPS BIII-2  (PRN 18)",
        "group": "gps-ops",
        "lat": -8.198930793536721,
        "lon": 164.1383289837317,
        "alt_km": 20031.923573818633,
        "timestamp": "2025-12-13T22:39:29.968720+00:00",
        "meta_object_name": "GPS BIII-2  (PRN 18)",
        "meta_object_id": "2019-056A",
        "meta_epoch": "2025-12-11T10:12:28.532736",
        "meta_mean_motion": 2.00566237,
        "meta_eccentricity": 0.00577517,
        "meta_inclination": 55.7218,
        "meta_ra_of_asc_node": 338.6041,
        "meta_arg_of_pericenter": 198.4885,
        "meta_mean_anomaly": 332.8185,
        "meta_ephemeris_type": 0,
        "meta_classification_type": "U",
        "meta_norad_cat_id": 44506,
        "meta_element_set_no": 999,
        "meta_rev_at_epoch": 4630,
        "meta_bstar": 0,
        "meta_mean_motion_dot": -8.7e-07,
        "meta_mean_motion_ddot": 0,
        "tle_line1": "1 44506U 19056A   25345.42533024 -.00000087  00000+0  00000+0 0  9996",
        "tle_line2": "2 44506  55.7218 338.6041 0057751 198.4885 332.8185  2.00566237 46306"
      },
      "geometry": {
        "type": "Point",
        "coordinates": [
          164.1383289837317,
          -8.198930793536721
        ]
      }
    },
    {
      "type": "Feature",
      "properties": {
        "norad_id": 45854,
        "name": "GPS BIII-3  (PRN 23)",
        "group": "gps-ops",
        "lat": 37.322062655605116,
        "lon": -174.08542555157823,
        "alt_km": 20122.37469351961,
        "timestamp": "2025-12-13T22:39:29.968731+00:00",
        "meta_object_name": "GPS BIII-3  (PRN 23)",
        "meta_object_id": "2020-041A",
        "meta_epoch": "2025-12-11T05:23:02.925024",
        "meta_mean_motion": 2.00561914,
        "meta_eccentricity": 0.006046,
        "meta_inclination": 56.5461,
        "meta_ra_of_asc_node": 36.2442,
        "meta_arg_of_pericenter": 203.3747,
        "meta_mean_anomaly": 126.9066,
        "meta_ephemeris_type": 0,
        "meta_classification_type": "U",
        "meta_norad_cat_id": 45854,
        "meta_element_set_no": 999,
        "meta_rev_at_epoch": 4026,
        "meta_bstar": 0,
        "meta_mean_motion_dot": -9.4e-07,
        "meta_mean_motion_ddot": 0,
        "tle_line1": "1 45854U 20041A   25345.22433941 -.00000094  00000+0  00000+0 0  9992",
        "tle_line2": "2 45854  56.5461  36.2442 0060460 203.3747 126.9066  2.00561914 40268"
      },
      "geometry": {
        "type": "Point",
        "coordinates": [
          -174.08542555157823,
          37.322062655605116
        ]
      }
    },
    {
      "type": "Feature",
      "properties": {
        "norad_id": 46826,
        "name": "GPS BIII-4  (PRN 14)",
        "group": "gps-ops",
        "lat": 51.643283738512665,
        "lon": -28.271499017538698,
        "alt_km": 20202.158251288456,
        "timestamp": "2025-12-13T22:39:29.968742+00:00",
        "meta_object_name": "GPS BIII-4  (PRN 14)",
        "meta_object_id": "2020-078A",
        "meta_epoch": "2025-12-13T00:53:29.004000",
        "meta_mean_motion": 2.00566814,
        "meta_eccentricity": 0.00646719,
        "meta_inclination": 54.015,
        "meta_ra_of_asc_node": 218.3288,
        "meta_arg_of_pericenter": 203.3817,
        "meta_mean_anomaly": 326.8,
        "meta_ephemeris_type": 0,
        "meta_classification_type": "U",
        "meta_norad_cat_id": 46826,
        "meta_element_set_no": 999,
        "meta_rev_at_epoch": 3777,
        "meta_bstar": 0,
        "meta_mean_motion_dot": 2.7e-07,
        "meta_mean_motion_ddot": 0,
        "tle_line1": "1 46826U 20078A   25347.03714125  .00000027  00000+0  00000+0 0  9994",
        "tle_line2": "2 46826  54.0150 218.3288 0064671 203.3817 326.8000  2.00566814 37778"
      },
      "geometry": {
        "type": "Point",
        "coordinates": [
          -28.271499017538698,
          51.643283738512665
        ]
      }
    }
  ]
}